STARLINK-31068          
1 58623U 23203F   26068.05378877  .00000088  00000+0  12724-4 0  9996
2 58623  43.0055  70.7252 0001221 274.9229  85.1484 15.27576051123462
FLOCK 4G-6              
1 62660U 25009BD  26068.71061311  .00012261  00000+0  45910-3 0  9991
2 62660  97.3980 150.7943 0002380 348.2637  11.8546 15.27432125121307
