[{"OBJECT_NAME":"STARLINK-31068","OBJECT_ID":"2023-203F","EPOCH":"2026-03-09T01:17:27.349728","MEAN_MOTION":15.27576051,"ECCENTRICITY":0.00012215,"INCLINATION":43.0055,"RA_OF_ASC_NODE":70.7252,"ARG_OF_PERICENTER":274.9229,"MEAN_ANOMALY":85.1484,"EPHEMERIS_TYPE":0,"CLASSIFICATION_TYPE":"U","NORAD_CAT_ID":58623,"ELEMENT_SET_NO":999,"REV_AT_EPOCH":12346,"BSTAR":1.2724311e-5,"MEAN_MOTION_DOT":8.8e-7,"MEAN_MOTION_DDOT":0},{"OBJECT_NAME":"FLOCK 4G-6","OBJECT_ID":"2025-009BD","EPOCH":"2026-03-09T17:03:16.973568","MEAN_MOTION":15.27432125,"ECCENTRICITY":0.00023795,"INCLINATION":97.398,"RA_OF_ASC_NODE":150.7943,"ARG_OF_PERICENTER":348.2637,"MEAN_ANOMALY":11.8546,"EPHEMERIS_TYPE":0,"CLASSIFICATION_TYPE":"U","NORAD_CAT_ID":62660,"ELEMENT_SET_NO":999,"REV_AT_EPOCH":12130,"BSTAR":0.00045909501,"MEAN_MOTION_DOT":0.00012261,"MEAN_MOTION_DDOT":0}]
